EUTELSAT 7A             
1 28187U 04008A   26004.81919529  .00000099  00000+0  00000+0 0  9990
2 28187   5.4165  73.9834 0001507 243.8541 302.2724  1.00271480 79710
EUTELSAT 174A           
1 28924U 05052A   26004.92192708  .00000006  00000+0  00000+0 0  9991
2 28924   3.8061  78.5752 0006289 208.9732 322.8397  1.00272368 50698
EUTELSAT HOTBIRD 13B    
1 29270U 06032A   26004.95094378  .00000155  00000+0  00000+0 0  9997
2 29270   1.2410  84.1500 0003579 206.3063 189.5228  1.00273629 45679
EUTELSAT HOTBIRD 13C    
1 33459U 08065A   26004.87753477 -.00000285  00000+0  00000+0 0  9997
2 33459   2.5314  81.1580 0003697 206.5488  82.3566  1.00268772 45701
EUTELSAT 36B            
1 36101U 09065A   26004.89746822  .00000112  00000+0  00000+0 0  9991
2 36101   0.0830  59.7824 0005770 223.7536 194.5434  1.00269474 59070
EUTELSAT KA-SAT 9A      
1 37258U 10069A   26004.60392637  .00000062  00000+0  00000+0 0  9995
2 37258   0.0508 338.3378 0001630 198.7962 153.4898  1.00272711 42361
EUTELSAT 7 WEST A       
1 37816U 11051A   26004.88602815 -.00000060  00000+0  00000+0 0  9998
2 37816   0.0651  17.5982 0004905 222.5703 175.9719  1.00271550 52232
EUTELSAT 16A            
1 37836U 11057A   26004.89062150  .00000104  00000+0  00000+0 0  9997
2 37836   0.0574  15.9579 0005515 269.6702 155.4762  1.00270243  5698
